NORAD_CAT_ID,OBJECT_NAME,OBJECT_TYPE,EPOCH,MEAN_MOTION,ECCENTRICITY,INCLINATION,RA_OF_ASC_NODE,ARG_OF_PERICENTER,MEAN_ANOMALY,BSTAR,MEAN_MOTION_DOT,MEAN_MOTION_DDOT,TLE_LINE0,TLE_LINE1,TLE_LINE2,SEMIMAJOR_AXIS,PERIOD,APOGEE,PERIGEE,DECAYED
228,DELTA 1 DEB (YO),DEBRIS,2022-05-13 18:18:17,15.0279454,0.0014444,48.4286,319.5057,157.5495,202.6064,0.00021629,2.673e-05,0.0,0 DELTA 1 DEB (YO),1 00228U 62002C   22133.76270180  .00002673  00000-0  21629-3 0  9995,2 00228  48.4286 319.5057 0014444 157.5495 202.6064 15.02794540215723,6936.4209999999985,95.821,568.305,548.2669999999998,0.0
228,DELTA 1 DEB (YO),DEBRIS,2022-05-14 13:27:11,15.02799999,0.0014462,48.4285,315.5725,161.2117,198.9343,0.00024093,3.009e-05,0.0,0 DELTA 1 DEB (YO),1 00228U 62002C   22134.56055400  .00003009  00000-0  24093-3 0  9992,2 00228  48.4285 315.5725 0014462 161.2117 198.9343 15.02799999215846,6936.404,95.821,568.3,548.238,0.0
228,DELTA 1 DEB (YO),DEBRIS,2022-05-14 18:14:25,15.02801325,0.0014482999999999998,48.4285,314.5894,162.1371,198.0065,0.0002451,3.066e-05,0.0,0 DELTA 1 DEB (YO),1 00228U 62002C   22134.76001658  .00003066  00000-0  24510-3 0  9997,2 00228  48.4285 314.5894 0014483 162.1371 198.0065 15.02801325215879,6936.4,95.821,568.311,548.219,0.0
228,DELTA 1 DEB (YO),DEBRIS,2022-05-15 13:23:19,15.028086300000002,0.0014536,48.4284,310.6562,165.8308,194.3027,0.00029147,3.698e-05,0.0,0 DELTA 1 DEB (YO),1 00228U 62002C   22135.55786416  .00003698  00000-0  29147-3 0  9999,2 00228  48.4284 310.6562 0014536 165.8308 194.3027 15.02808630215992,6936.378000000002,95.821,568.325,548.16,0.0
228,DELTA 1 DEB (YO),DEBRIS,2022-05-15 18:10:32,15.02810121,0.0014545,48.4284,309.6731,166.7158,193.4152,0.00029623,3.763e-05,0.0,0 DELTA 1 DEB (YO),1   228U 62002C   22135.75732575  .00003763  00000-0  29623-3 0  9990,2   228  48.4284 309.6731 0014545 166.7158 193.4152 15.02810121240154,6936.373000000001,95.82,568.327,548.149,0.0
228,DELTA 1 DEB (YO),DEBRIS,2022-05-16 13:19:26,15.02816046,0.0014555999999999998,48.428000000000004,305.7396,170.2829,189.838,0.00030157,3.836e-05,0.0,0 DELTA 1 DEB (YO),1 00228U 62002C   22136.55516964  .00003836  00000-0  30157-3 0  9996,2 00228  48.4280 305.7396 0014556 170.2829 189.8380 15.02816046216147,6936.355,95.82,568.316,548.123,0.0
228,DELTA 1 DEB (YO),DEBRIS,2022-05-16 18:06:40,15.02817679,0.0014554,48.4281,304.7563,171.1689,188.9494,0.00030084,3.826e-05,0.0,0 DELTA 1 DEB (YO),1 00228U 62002C   22136.75462997  .00003826  00000-0  30084-3 0  9992,2 00228  48.4281 304.7563 0014554 171.1689 188.9494 15.02817679216177,6936.35,95.82,568.31,548.119,0.0
228,DELTA 1 DEB (YO),DEBRIS,2022-05-17 03:41:06,15.02820798,0.0014550999999999998,48.4281,302.7897,172.9507,187.1624,0.00028979,3.676e-05,0.0,0 DELTA 1 DEB (YO),1   228U 62002C   22137.15354992  .00003676  00000-0  28979-3 0  9995,2   228  48.4281 302.7897 0014551 172.9507 187.1624 15.02820798240360,6936.34,95.82,568.298,548.112,0.0
228,DELTA 1 DEB (YO),DEBRIS,2022-05-17 13:15:33,15.028251000000001,0.0014574000000000002,48.4282,300.823,174.7625,185.3454,0.00031461,4.015e-05,0.0,0 DELTA 1 DEB (YO),1 00228U 62002C   22137.55246874  .00004015  00000-0  31461-3 0  9996,2 00228  48.4282 300.8230 0014574 174.7625 185.3454 15.02825100216295,6936.3269999999975,95.82,568.3009999999998,548.0830000000002,0.0
228,DELTA 1 DEB (YO),DEBRIS,2022-05-17 19:38:30,15.02827283,0.0014575999999999999,48.4282,299.5119,175.917,184.1876,0.00031282,3.991e-05,0.0,0 DELTA 1 DEB (YO),1 00228U 62002C   22137.81841423  .00003991  00000-0  31282-3 0  9999,2 00228  48.4282 299.5119 0014576 175.9170 184.1876 15.02827283216339,6936.32,95.819,568.295,548.075,0.0
228,DELTA 1 DEB (YO),DEBRIS,2022-05-18 11:35:55,15.02833908,0.0014604000000000002,48.4282,296.2341,178.9673,181.1284,0.00034789,4.469e-05,0.0,0 DELTA 1 DEB (YO),1   228U 62002C   22138.48327624  .00004469  00000-0  34789-3 0  9991,2   228  48.4282 296.2341 0014604 178.9673 181.1284 15.02833908240566,6936.3,95.819,568.294,548.035,0.0
228,DELTA 1 DEB (YO),DEBRIS,2022-05-18 13:11:39,15.02834891,0.0014597000000000002,48.4282,295.9065,179.2831,180.8116,0.00035612,4.581e-05,0.0,0 DELTA 1 DEB (YO),1 00228U 62002C   22138.54976210  .00004581  00000-0  35612-3 0  9990,2 00228  48.4282 295.9065 0014597 179.2831 180.8116 15.02834891216448,6936.297,95.819,568.2869999999998,548.0369999999998,0.0
228,DELTA 1 DEB (YO),DEBRIS,2022-05-18 14:47:23,15.02835588,0.0014594,48.4283,295.5788,179.5722,180.5217,0.00036067,4.643e-05,0.0,0 DELTA 1 DEB (YO),1 00228U 62002C   22138.61624812  .00004643  00000-0  36067-3 0  9990,2 00228  48.4283 295.5788 0014594 179.5722 180.5217 15.02835588216450,6936.295,95.819,568.2819999999998,548.0369999999998,0.0
228,DELTA 1 DEB (YO),DEBRIS,2022-05-19 11:32:00,15.02845936,0.0014638,48.4282,291.318,183.5067,176.5757,0.00043804,5.699e-05,0.0,0 DELTA 1 DEB (YO),1 00228U 62002C   22139.48056319  .00005699  00000-0  43804-3 0  9996,2 00228  48.4282 291.3180 0014638 183.5067 176.5757 15.02845936216581,6936.263000000001,95.818,568.281,547.974,0.0
228,DELTA 1 DEB (YO),DEBRIS,2022-05-19 14:43:29,15.02847581,0.0014644,48.4282,290.6625,184.1065,175.9741,0.00044867,5.845e-05,0.0,0 DELTA 1 DEB (YO),1   228U 62002C   22139.61353421  .00005845  00000-0  44867-3 0  9998,2   228  48.4282 290.6625 0014644 184.1065 175.9741 15.02847581240737,6936.2580000000025,95.818,568.28,547.965,0.0
228,DELTA 1 DEB (YO),DEBRIS,2022-05-19 19:30:42,15.02848199,0.0014642000000000001,48.4282,289.6793,184.9709,175.1072,0.00041501,5.386e-05,0.0,0 DELTA 1 DEB (YO),1 00228U 62002C   22139.81299105  .00005386  00000-0  41501-3 0  9990,2 00228  48.4282 289.6793 0014642 184.9709 175.1072 15.02848199216639,6936.2559999999985,95.818,568.2769999999998,547.965,0.0
228,DELTA 1 DEB (YO),DEBRIS,2022-05-20 11:28:05,15.02855092,0.0014667,48.428000000000004,286.4018,187.9858,172.0835,0.0004119,5.344e-05,0.0,0 DELTA 1 DEB (YO),1 00228U 62002C   22140.47784357  .00005344  00000-0  41190-3 0  9990,2 00228  48.4280 286.4018 0014667 187.9858 172.0835 15.02855092216731,6936.235,95.818,568.273,547.9259999999998,0.0
228,DELTA 1 DEB (YO),DEBRIS,2022-05-20 16:15:18,15.02857338,0.001467,48.428000000000004,285.4185,188.8673,171.1994,0.00041559,5.395e-05,0.0,0 DELTA 1 DEB (YO),1   228U 62002C   22140.67729869  .00005395  00000-0  41559-3 0  9994,2   228  48.4280 285.4185 0014670 188.8673 171.1994 15.02857338240899,6936.228,95.81700000000001,568.268,547.9169999999998,0.0
228,DELTA 1 DEB (YO),DEBRIS,2022-05-21 11:24:09,15.02866708,0.0014711,48.4278,281.4856,192.5442,167.5118,0.00041102,5.334e-05,0.0,0 DELTA 1 DEB (YO),1 00228U 62002C   22141.47511569  .00005334  00000-0  41102-3 0  9996,2 00228  48.4278 281.4856 0014711 192.5442 167.5118 15.02866708216889,6936.199000000001,95.81700000000001,568.268,547.86,0.0
228,DELTA 1 DEB (YO),DEBRIS,2022-05-21 17:47:07,15.0286987,0.0014704,48.4278,280.1745,193.6326,166.4203,0.00041022,5.324e-05,0.0,0 DELTA 1 DEB (YO),1   228U 62002C   22141.74105355  .00005324  00000-0  41022-3 0  9998,2   228  48.4278 280.1745 0014704 193.6326 166.4203 15.02869870241050,6936.189,95.81700000000001,568.253,547.855,0.0
228,DELTA 1 DEB (YO),DEBRIS,2022-05-22 12:55:57,15.02879164,0.0014730000000000001,48.4276,276.2413,197.2408,162.8018,0.00039716,5.147e-05,0.0,0 DELTA 1 DEB (YO),1 00228U 62002C   22142.53886385  .00005147  00000-0  39716-3 0  9995,2 00228  48.4276 276.2413 0014730 197.2408 162.8018 15.02879164217049,6936.16,95.816,568.242,547.809,0.0
228,DELTA 1 DEB (YO),DEBRIS,2022-05-22 16:07:26,15.02880583,0.0014735,48.4276,275.5857,197.8452,162.1957,0.00039699,5.145e-05,0.0,0 DELTA 1 DEB (YO),1 00228U 62002C   22142.67183183  .00005145  00000-0  39699-3 0  9994,2 00228  48.4276 275.5857 0014735 197.8452 162.1957 15.02880583217067,6936.156,95.816,568.242,547.8009999999998,0.0
228,DELTA 1 DEB (YO),DEBRIS,2022-05-23 09:40:32,15.02886906,0.0014829,48.4274,271.9802,201.1577,158.8735,0.00034616,4.452e-05,0.0,0 DELTA 1 DEB (YO),1   228U 62002C   22143.40315374  .00004452  00000-0  34616-3 0  9999,2   228  48.4274 271.9802 0014829 201.1577 158.8735 15.02886906241301,6936.137,95.816,568.2869999999998,547.716,0.0
228,DELTA 1 DEB (YO),DEBRIS,2022-05-23 12:52:00,15.02889684,0.0014776,48.4276,271.3246,201.6216,158.4085,0.00038721,5.013e-05,0.0,0 DELTA 1 DEB (YO),1 00228U 62002C   22143.53612074  .00005013  00000-0  38721-3 0  9995,2 00228  48.4276 271.3246 0014776 201.6216 158.4085 15.02889684217195,6936.128000000002,95.815,568.242,547.744,0.0
228,DELTA 1 DEB (YO),DEBRIS,2022-05-24 12:48:03,15.02898232,0.0014785,48.4276,266.4078,205.9961,154.0222,0.00034546,4.444e-05,0.0,0 DELTA 1 DEB (YO),1 00228U 62002C   22144.53337162  .00004444  00000-0  34546-3 0  9996,2 00228  48.4276 266.4078 0014785 205.9961 154.0222 15.02898232217348,6936.102,95.815,568.222,547.712,0.0
228,DELTA 1 DEB (YO),DEBRIS,2022-05-25 12:44:05,15.02908296,0.0014834000000000002,48.4276,261.491,210.5051,149.5011,0.00035604,4.59e-05,0.0,0 DELTA 1 DEB (YO),1 00228U 62002C   22145.53061581  .00004590  00000-0  35604-3 0  9994,2 00228  48.4276 261.4910 0014834 210.5051 149.5011 15.02908296217498,6936.071,95.814,568.225,547.6469999999998,0.0
228,DELTA 1 DEB (YO),DEBRIS,2022-05-25 14:19:49,15.02908917,0.0014839,48.4276,261.1633,210.7935,149.21200000000005,0.00035632,4.594e-05,0.0,0 DELTA 1 DEB (YO),1   228U 62002C   22145.59709854  .00004594  00000-0  35632-3 0  9997,2   228  48.4276 261.1633 0014839 210.7935 149.2120 15.02908917241636,6936.069,95.814,568.226,547.641,0.0
228,DELTA 1 DEB (YO),DEBRIS,2022-05-26 12:40:06,15.02915448,0.0014869000000000002,48.4276,256.5743,214.8904,145.1047,0.0002807,3.562e-05,0.0,0 DELTA 1 DEB (YO),1 00228U 62002C   22146.52785417  .00003562  00000-0  28070-3 0  9992,2 00228  48.4276 256.5743 0014869 214.8904 145.1047 15.02915448217644,6936.049,95.814,568.227,547.601,0.0
